[{"OBJECT_NAME":"ZHUHAI-1 03C","OBJECT_ID":"2019-060D","EPOCH":"2026-03-09T23:14:25.268928","MEAN_MOTION":15.71109528,"ECCENTRICITY":0.00111308,"INCLINATION":97.5515,"RA_OF_ASC_NODE":231.2826,"ARG_OF_PERICENTER":267.4607,"MEAN_ANOMALY":92.5381,"EPHEMERIS_TYPE":0,"CLASSIFICATION_TYPE":"U","NORAD_CAT_ID":44537,"ELEMENT_SET_NO":999,"REV_AT_EPOCH":36152,"BSTAR":0.00082474362,"MEAN_MOTION_DOT":0.00104963,"MEAN_MOTION_DDOT":0},{"OBJECT_NAME":"STARLINK-11261 [DTC]","OBJECT_ID":"2024-152E","EPOCH":"2026-03-09T10:31:39.639936","MEAN_MOTION":15.69701884,"ECCENTRICITY":0.00010183,"INCLINATION":53.1585,"RA_OF_ASC_NODE":117.6459,"ARG_OF_PERICENTER":114.7374,"MEAN_ANOMALY":245.375,"EPHEMERIS_TYPE":0,"CLASSIFICATION_TYPE":"U","NORAD_CAT_ID":60724,"ELEMENT_SET_NO":999,"REV_AT_EPOCH":8879,"BSTAR":-4.042322e-6,"MEAN_MOTION_DOT":-1.078e-5,"MEAN_MOTION_DDOT":0}]
